{"type": "FeatureCollection", "features": [ {"type": "Feature", "properties": {"norad_id": 66946, "name": "STARLINK-36115", "group": "last-30-days", "lat": -47.34676044489579, "lon": -84.85390642025665, "alt_km": 295.84997426445716, "timestamp": "2025-12-14T16:47:39.439772+00:00", "meta": {"OBJECT_NAME": "STARLINK-36115", "OBJECT_ID": "2025-286X", "EPOCH": "2025-12-13T20:00:03.000384", "MEAN_MOTION": 15.96477415, "ECCENTRICITY": 7.781e-05, "INCLINATION": 53.1566, "RA_OF_ASC_NODE": 45.1021, "ARG_OF_PERICENTER": 63.3736, "MEAN_ANOMALY": 244.6315, "EPHEMERIS_TYPE": 0, "CLASSIFICATION_TYPE": "U", "NORAD_CAT_ID": 66946, "ELEMENT_SET_NO": 999, "REV_AT_EPOCH": 216, "BSTAR": -0.0032286801, "MEAN_MOTION_DOT": -0.01388862, "MEAN_MOTION_DDOT": 0.00058137586}, "tle": {"line1": "1 66946U 25286X   25347.83336806 -.01388862  58138-3 -32287-2 0  9992", "line2": "2 66946  53.1566  45.1021 0000778  63.3736 244.6315 15.96477415  2165"}}, "geometry": {"type": "Point", "coordinates": [-84.85390642025665, -47.34676044489579]}}, {"type": "Feature", "properties": {"norad_id": 66947, "name": "STARLINK-36089", "group": "last-30-days", "lat": -48.929172127967384, "lon": -79.97651987538433, "alt_km": 295.45872276441423, "timestamp": "2025-12-14T16:47:39.439782+00:00", "meta": {"OBJECT_NAME": "STARLINK-36089", "OBJECT_ID": "2025-286Y", "EPOCH": "2025-12-13T20:00:03.000384", "MEAN_MOTION": 15.96639823, "ECCENTRICITY": 7.914e-05, "INCLINATION": 53.1566, "RA_OF_ASC_NODE": 45.0957, "ARG_OF_PERICENTER": 63.6546, "MEAN_ANOMALY": 247.4785, "EPHEMERIS_TYPE": 0, "CLASSIFICATION_TYPE": "U", "NORAD_CAT_ID": 66947, "ELEMENT_SET_NO": 999, "REV_AT_EPOCH": 216, "BSTAR": -0.0032052654, "MEAN_MOTION_DOT": -0.01391082, "MEAN_MOTION_DDOT": 0.00058405116}, "tle": {"line1": "1 66947U 25286Y   25347.83336806 -.01391082  58405-3 -32053-2 0  9999", "line2": "2 66947  53.1566  45.0957 0000791  63.6546 247.4785 15.96639823  2165"}}, "geometry": {"type": "Point", "coordinates": [-79.97651987538433, -48.929172127967384]}}, {"type": "Feature", "properties": {"norad_id": 66948, "name": "STARLINK-36116", "group": "last-30-days", "lat": -48.27465112370321, "lon": -82.10958355567655, "alt_km": 295.61043532511303, "timestamp": "2025-12-14T16:47:39.439792+00:00", "meta": {"OBJECT_NAME": "STARLINK-36116", "OBJECT_ID": "2025-286Z", "EPOCH": "2025-12-13T20:00:03.000384", "MEAN_MOTION": 15.96570582, "ECCENTRICITY": 7.64e-05, "INCLINATION": 53.1567, "RA_OF_ASC_NODE": 45.0984, "ARG_OF_PERICENTER": 67.4423, "MEAN_ANOMALY": 242.3415, "EPHEMERIS_TYPE": 0, "CLASSIFICATION_TYPE": "U", "NORAD_CAT_ID": 66948, "ELEMENT_SET_NO": 999, "REV_AT_EPOCH": 216, "BSTAR": -0.0032129211, "MEAN_MOTION_DOT": -0.01389145, "MEAN_MOTION_DDOT": 0.00058215102}, "tle": {"line1": "1 66948U 25286Z   25347.83336806 -.01389145  58215-3 -32129-2 0  9990", "line2": "2 66948  53.1567  45.0984 0000764  67.4423 242.3415 15.96570582  2163"}}, "geometry": {"type": "Point", "coordinates": [-82.10958355567655, -48.27465112370321]}}, {"type": "Feature", "properties": {"norad_id": 66949, "name": "STARLINK-36096", "group": "last-30-days", "lat": -49.561522402678264, "lon": -77.7206524522582, "alt_km": 295.23313081741344, "timestamp": "2025-12-14T16:47:39.439802+00:00", "meta": {"OBJECT_NAME": "STARLINK-36096", "OBJECT_ID": "2025-286AA", "EPOCH": "2025-12-13T20:00:03.000384", "MEAN_MOTION": 15.96714709, "ECCENTRICITY": 7.38e-05, "INCLINATION": 53.1566, "RA_OF_ASC_NODE": 45.0927, "ARG_OF_PERICENTER": 62.2447, "MEAN_ANOMALY": 250.2676, "EPHEMERIS_TYPE": 0, "CLASSIFICATION_TYPE": "U", "NORAD_CAT_ID": 66949, "ELEMENT_SET_NO": 999, "REV_AT_EPOCH": 216, "BSTAR": -0.0031968215, "MEAN_MOTION_DOT": -0.01393097, "MEAN_MOTION_DDOT": 0.00058604918}, "tle": {"line1": "1 66949U 25286AA  25347.83336806 -.01393097  58605-3 -31968-2 0  9995", "line2": "2 66949  53.1566  45.0927 0000738  62.2447 250.2676 15.96714709  2168"}}, "geometry": {"type": "Point", "coordinates": [-77.7206524522582, -49.561522402678264]}}, {"type": "Feature", "properties": {"norad_id": 66950, "name": "STARLINK-36111", "group": "last-30-days", "lat": -50.72900434010602, "lon": -72.85153159387139, "alt_km": 294.9191236627903, "timestamp": "2025-12-14T16:47:39.439812+00:00", "meta": {"OBJECT_NAME": "STARLINK-36111", "OBJECT_ID": "2025-286AB", "EPOCH": "2025-12-13T20:00:03.000384", "MEAN_MOTION": 15.96872095, "ECCENTRICITY": 7.612e-05, "INCLINATION": 53.1566, "RA_OF_ASC_NODE": 45.0868, "ARG_OF_PERICENTER": 66.428, "MEAN_ANOMALY": 248.9767, "EPHEMERIS_TYPE": 0, "CLASSIFICATION_TYPE": "U", "NORAD_CAT_ID": 66950, "ELEMENT_SET_NO": 999, "REV_AT_EPOCH": 216, "BSTAR": -0.0032085965, "MEAN_MOTION_DOT": -0.0141015, "MEAN_MOTION_DDOT": 0.00060019636}, "tle": {"line1": "1 66950U 25286AB  25347.83336806 -.01410150  60020-3 -32086-2 0  9993", "line2": "2 66950  53.1566  45.0868 0000761  66.4280 248.9767 15.96872095  2169"}}, "geometry": {"type": "Point", "coordinates": [-72.85153159387139, -50.72900434010602]}}, {"type": "Feature", "properties": {"norad_id": 66951, "name": "STARLINK-35999", "group": "last-30-days", "lat": -51.27011871739317, "lon": -70.13767406971259, "alt_km": 294.651174765595, "timestamp": "2025-12-14T16:47:39.439822+00:00", "meta": {"OBJECT_NAME": "STARLINK-35999", "OBJECT_ID": "2025-286AC", "EPOCH": "2025-12-13T20:00:03.000384", "MEAN_MOTION": 15.96954361, "ECCENTRICITY": 6.849e-05, "INCLINATION": 53.1568, "RA_OF_ASC_NODE": 45.0835, "ARG_OF_PERICENTER": 70.878, "MEAN_ANOMALY": 246.065, "EPHEMERIS_TYPE": 0, "CLASSIFICATION_TYPE": "U", "NORAD_CAT_ID": 66951, "ELEMENT_SET_NO": 999, "REV_AT_EPOCH": 216, "BSTAR": -0.003193034, "MEAN_MOTION_DOT": -0.01409673, "MEAN_MOTION_DDOT": 0.00060033706}, "tle": {"line1": "1 66951U 25286AC  25347.83336806 -.01409673  60034-3 -31930-2 0  9994", "line2": "2 66951  53.1568  45.0835 0000684  70.8780 246.0650 15.96954361  2161"}}, "geometry": {"type": "Point", "coordinates": [-70.13767406971259, -51.27011871739317]}}, {"type": "Feature", "properties": {"norad_id": 66952, "name": "STARLINK-36122", "group": "last-30-days", "lat": -50.18163244535953, "lon": -75.2713122668539, "alt_km": 295.06085998417984, "timestamp": "2025-12-14T16:47:39.439834+00:00", "meta": {"OBJECT_NAME": "STARLINK-36122", "OBJECT_ID": "2025-286AD", "EPOCH": "2025-12-13T20:00:03.000384", "MEAN_MOTION": 15.96797343, "ECCENTRICITY": 7.092e-05, "INCLINATION": 53.1568, "RA_OF_ASC_NODE": 45.0898, "ARG_OF_PERICENTER": 66.0989, "MEAN_ANOMALY": 247.8888, "EPHEMERIS_TYPE": 0, "CLASSIFICATION_TYPE": "U", "NORAD_CAT_ID": 66952, "ELEMENT_SET_NO": 999, "REV_AT_EPOCH": 216, "BSTAR": -0.0032124476, "MEAN_MOTION_DOT": -0.01406101, "MEAN_MOTION_DDOT": 0.00059658924}, "tle": {"line1": "1 66952U 25286AD  25347.83336806 -.01406101  59659-3 -32124-2 0  9995", "line2": "2 66952  53.1568  45.0898 0000709  66.0989 247.8888 15.96797343  2164"}}, "geometry": {"type": "Point", "coordinates": [-75.2713122668539, -50.18163244535953]}}, {"type": "Feature", "properties": {"norad_id": 66953, "name": "HULIANWANG DIGUI-114", "group": "last-30-days", "lat": 56.59965617399679, "lon": 160.1107931724178, "alt_km": 997.403158117565, "timestamp": "2025-12-14T16:47:39.439846+00:00", "meta": {"OBJECT_NAME": "HULIANWANG DIGUI-114", "OBJECT_ID": "2025-287A", "EPOCH": "2025-12-11T05:43:48.442368", "MEAN_MOTION": 13.68688345, "ECCENTRICITY": 0.00085506, "INCLINATION": 86.4966, "RA_OF_ASC_NODE": 346.7027, "ARG_OF_PERICENTER": 209.4482, "MEAN_ANOMALY": 150.6197, "EPHEMERIS_TYPE": 0, "CLASSIFICATION_TYPE": "U", "NORAD_CAT_ID": 66953, "ELEMENT_SET_NO": 999, "REV_AT_EPOCH": 32, "BSTAR": 1.3583638e-05, "MEAN_MOTION_DOT": 2.8e-07, "MEAN_MOTION_DDOT": 0}, "tle": {"line1": "1 66953U 25287A   25345.23875512  .00000028  00000+0  13584-4 0  9999", "line2": "2 66953  86.4966 346.7027 0008550 209.4482 150.6197 13.68688345   322"}}, "geometry": {"type": "Point", "coordinates": [160.1107931724178, 56.59965617399679]}}, {"type": "Feature", "properties": {"norad_id": 66954, "name": "HULIANWANG DIGUI-115", "group": "last-30-days", "lat": 54.522277729643854, "lon": 160.51429377535374, "alt_km": 996.9004643048529, "timestamp": "2025-12-14T16:47:39.439859+00:00", "meta": {"OBJECT_NAME": "HULIANWANG DIGUI-115", "OBJECT_ID": "2025-287B", "EPOCH": "2025-12-14T00:23:38.526432", "MEAN_MOTION": 13.68791673, "ECCENTRICITY": 0.00086518, "INCLINATION": 86.4972, "RA_OF_ASC_NODE": 345.6933, "ARG_OF_PERICENTER": 199.978, "MEAN_ANOMALY": 160.1042, "EPHEMERIS_TYPE": 0, "CLASSIFICATION_TYPE": "U", "NORAD_CAT_ID": 66954, "ELEMENT_SET_NO": 999, "REV_AT_EPOCH": 70, "BSTAR": 2.67499e-05, "MEAN_MOTION_DOT": 4e-07, "MEAN_MOTION_DDOT": 0}, "tle": {"line1": "1 66954U 25287B   25348.01641813  .00000040  00000+0  26750-4 0  9997", "line2": "2 66954  86.4972 345.6933 0008651 199.9780 160.1042 13.68791673   706"}}, "geometry": {"type": "Point", "coordinates": [160.51429377535374, 54.522277729643854]}}, {"type": "Feature", "properties": {"norad_id": 66955, "name": "HULIANWANG DIGUI-116", "group": "last-30-days", "lat": 52.19545666217772, "lon": 160.89794482353406, "alt_km": 996.1199575116116, "timestamp": "2025-12-14T16:47:39.439869+00:00", "meta": {"OBJECT_NAME": "HULIANWANG DIGUI-116", "OBJECT_ID": "2025-287C", "EPOCH": "2025-12-14T00:23:02.759424", "MEAN_MOTION": 13.68903152, "ECCENTRICITY": 0.00081009, "INCLINATION": 86.4907, "RA_OF_ASC_NODE": 345.6842, "ARG_OF_PERICENTER": 194.0861, "MEAN_ANOMALY": 166.0073, "EPHEMERIS_TYPE": 0, "CLASSIFICATION_TYPE": "U", "NORAD_CAT_ID": 66955, "ELEMENT_SET_NO": 999, "REV_AT_EPOCH": 70, "BSTAR": 2.6850904e-05, "MEAN_MOTION_DOT": 4e-07, "MEAN_MOTION_DDOT": 0}, "tle": {"line1": "1 66955U 25287C   25348.01600416  .00000040  00000+0  26851-4 0  9994", "line2": "2 66955  86.4907 345.6842 0008100 194.0861 166.0073 13.68903152   705"}}, "geometry": {"type": "Point", "coordinates": [160.89794482353406, 52.19545666217772]}}]}